0 THOR ABLESTAR DEB
1 13511U 61015KU  13281.69663319  .00000149  00000-0  26129-3 0   642
2 13511 065.8441 348.2999 0132196 269.3319 172.3670 13.65766983658166
0 THOR ABLESTAR DEB
1 13511U 61015KU  13287.56899428  .00000200  00000-0  32084-3 0   663
2 13511 065.8432 334.0188 0132266 266.7366 245.1292 13.65770324658961
0 THOR ABLESTAR DEB
1 13511U 61015KU  13289.75886694  .00000182  00000-0  30013-3 0   677
2 13511 065.8430 328.6931 0132285 265.7710 212.1399 13.65772214659263
0 THOR ABLESTAR DEB
1 13511U 61015KU  13292.17365788  .00000181  00000-0  29893-3 0   687
2 13511 065.8429 322.8198 0132274 264.6988 205.0356 13.65773736659595
0 THOR ABLESTAR DEB
1 13511U 61015KU  13294.50984093  .00000206  00000-0  32686-3 0   695
2 13511 065.8429 317.1382 0132245 263.6748 171.4359 13.65774986659911
